ONEWEB-0271             
1 48989U 21060Y   24296.51496119 -.00000041  00000+0 -14046-3 0  9990
2 48989  87.9138 348.8191 0002186  95.6360 264.5020 13.16591274160360
ONEWEB-0272             
1 48990U 21060Z   24296.53712938 -.00000008  00000+0 -55624-4 0  9995
2 48990  87.9139 348.8445 0002121  97.4462 262.6910 13.16593813160310
ONEWEB-0273             
1 48991U 21060AA  24296.55928605 -.00000027  00000+0 -10437-3 0  9991
2 48991  87.9136 348.8263 0002046  93.0534 267.0831 13.16591631160298
ONEWEB-0274             
1 48992U 21060AB  24296.50862433  .00000103  00000+0  23492-3 0  9991
2 48992  87.9142 348.8589 0002165 110.0626 250.0738 13.16592022160328
ONEWEB-0275             
1 48993U 21060AC  24296.57353572 -.00000002  00000+0 -38433-4 0  9990
2 48993  87.9134 348.8189 0002003  96.7711 263.3647 13.16592191160268
ONEWEB-0276             
1 48994U 21060AD  24296.53079503  .00000122  00000+0  28508-3 0  9998
2 48994  87.9138 348.8237 0002082  92.4181 267.7188 13.16593751160270
ONEWEB-0277             
1 48995U 21060AE  24296.54346323 -.00000073  00000+0 -22459-3 0  9993
2 48995  87.9139 348.8588 0002363  95.0326 265.1075 13.16593482160260
ONEWEB-0278             
1 48996U 21060AF  24296.53396176 -.00000458  00000+0 -12316-2 0  9991
2 48996  87.9133 348.8193 0001902  93.7741 266.3607 13.16594883160395
ONEWEB-0279             
1 48997U 21060AG  24296.54187077  .00000398  00000+0  10077-2 0  9994
2 48997  87.9138 348.8153 0002303  97.8204 262.3189 13.16594209160328
ONEWEB-0280             
1 48998U 21060AH  24296.55570926 -.00000033  00000+0 -11920-3 0  9992
2 48998  87.9148 348.8168 0002218  89.0434 271.0951 13.16638268160260
ONEWEB-0281             
1 48999U 21060AJ  24296.56245928 -.00000017  00000+0 -79114-4 0  9997
2 48999  87.9135 348.8147 0001897 103.5235 256.6108 13.16593224160330
ONEWEB-0282             
1 49000U 21060AK  24296.51654900 -.00000167  00000+0 -46936-3 0  9991
2 49000  87.9136 348.8407 0002086  91.0703 269.0667 13.16591339160306
ONEWEB-0283             
1 49001U 21060AL  24296.20147680  .00000019  00000+0  14883-4 0  9991
2 49001  87.9134 348.9081 0002150  99.4704 260.6670 13.16593789161593
ONEWEB-0284             
1 49002U 21060AM  24296.19513567  .00000017  00000+0  10760-4 0  9999
2 49002  87.9126 348.8855 0001756  91.2252 268.9080 13.16592501161566
ONEWEB-0285             
1 49075U 21075A   24296.55799120  .00000442  00000+0  11930-2 0  9996
2 49075  87.8838 110.6787 0001569  85.4029 274.7278 13.12442513156160
ONEWEB-0286             
1 49076U 21075B   24296.52945677 -.00000240  00000+0 -70125-3 0  9994
2 49076  87.8837 110.6835 0001305  91.1507 268.9771 13.12443225155519
ONEWEB-0287             
1 49077U 21075C   24296.53721714  .00000075  00000+0  15950-3 0  9999
2 49077  87.9077 125.9168 0001429  80.0676 280.0616 13.17648266154267
ONEWEB-0288             
1 49078U 21075D   24296.51565376 -.00000541  00000+0 -15386-2 0  9990
2 49078  87.8833 110.6886 0001568  86.5809 273.5499 13.12441651156136
ONEWEB-0289             
1 49079U 21075E   24296.56589573  .00000049  00000+0  92451-4 0  9992
2 49079  87.9078 125.9402 0001723  84.4334 275.6994 13.17652009154840
ONEWEB-0290             
1 49080U 21075F   24296.54902580  .00000102  00000+0  22832-3 0  9994
2 49080  87.9077 125.9029 0002150  72.0208 288.1158 13.17647211154259
ONEWEB-0291             
1 49081U 21075G   24296.53382642 -.00000337  00000+0 -90237-3 0  9991
2 49081  87.9073 125.9210 0001451  77.9977 282.1317 13.17648449154242
ONEWEB-0293             
1 49082U 21075H   24296.55914960  .00000043  00000+0  78326-4 0  9996
2 49082  87.9077 125.9359 0001659  79.5341 280.5977 13.17648381154276
ONEWEB-0294             
1 49083U 21075J   24296.52216497 -.00000334  00000+0 -96489-3 0  9998
2 49083  87.8833 110.6870 0001593  65.7233 294.4062 13.12443976155525
ONEWEB-0295             
1 49084U 21075K   24296.55832206  .00000058  00000+0  11705-3 0  9993
2 49084  87.9081 125.9145 0001271  78.2853 281.8421 13.17648671154236
ONEWEB-0296             
1 49085U 21075L   24296.50268556 -.00000059  00000+0 -19932-3 0  9993
2 49085  87.8837 110.6945 0001160  63.4123 296.7124 13.12442107155526
ONEWEB-0297             
1 49086U 21075M   24296.53351048 -.00000093  00000+0 -29426-3 0  9993
2 49086  87.8847 110.7049 0001531  90.7916 269.3388 13.12442494156134
ONEWEB-0298             
1 49087U 21075N   24296.56251925  .00000052  00000+0  10087-3 0  9996
2 49087  87.9077 125.9313 0001428  91.1615 268.9680 13.17648249154262
ONEWEB-0299             
1 49088U 21075P   24296.56420756  .00000074  00000+0  15615-3 0  9993
2 49088  87.9074 125.8954 0001381  89.8042 270.3248 13.17651781154246
ONEWEB-0300             
1 49089U 21075Q   24296.52539705 -.00000227  00000+0 -66609-3 0  9996
2 49089  87.8837 110.6848 0001826 100.3648 259.7686 13.12443785156159
ONEWEB-0301             
1 49090U 21075R   24296.50917867 -.00000250  00000+0 -72982-3 0  9992
2 49090  87.8837 110.6916 0001758  97.6088 262.5240 13.12442327155515
ONEWEB-0302             
1 49091U 21075S   24296.49621180  .00000952  00000+0  26111-2 0  9990
2 49091  87.8832 110.6933 0001557  77.4624 282.6679 13.12442731155494
ONEWEB-0304             
1 49092U 21075T   24296.53888988  .00000027  00000+0  35567-4 0  9997
2 49092  87.9078 125.9209 0001367  85.2116 274.9171 13.17649558154216
ONEWEB-0305             
1 49093U 21075U   24296.53213507  .00000037  00000+0  62376-4 0  9996
2 49093  87.9076 125.9063 0001101  84.8367 275.2890 13.17651586154241
ONEWEB-0308             
1 49094U 21075V   24296.48972442  .00000297  00000+0  79154-3 0  9990
2 49094  87.8838 110.6929 0001615  89.1573 270.9740 13.12440845155501
ONEWEB-0309             
1 49095U 21075W   24296.53552923  .00000011  00000+0 -53872-5 0  9991
2 49095  87.9079 125.9139 0001708  64.5376 295.5933 13.17649997154211
ONEWEB-0310             
1 49096U 21075X   24296.50431358  .00000070  00000+0  15962-3 0  9997
2 49096  87.8846 110.7087 0001701  87.6180 272.5143 13.12440792156137
ONEWEB-0311             
1 49097U 21075Y   24296.54225971  .00000020  00000+0  18991-4 0  9995
2 49097  87.9078 125.9135 0001149  90.1512 269.9751 13.17651457154266
ONEWEB-0312             
1 49098U 21075Z   24296.55744943  .00000015  00000+0  66889-5 0  9996
2 49098  87.9081 125.9427 0001276  69.7654 290.3615 13.17650600154249
ONEWEB-0313             
1 49099U 21075AA  24296.54830817  .00000025  00000+0  32872-4 0  9997
2 49099  87.9078 125.9533 0001371  79.9812 280.1473 13.16053106154234
ONEWEB-0314             
1 49100U 21075AB  24296.52875956  .00000063  00000+0  12805-3 0  9996
2 49100  87.9074 125.9040 0001253  73.0227 287.1041 13.17652155154205
ONEWEB-0315             
1 49101U 21075AC  24296.55460579  .00000493  00000+0  13354-2 0  9997
2 49101  87.8835 110.6721 0001322  99.9588 260.1690 13.12440802156124
ONEWEB-0316             
1 49102U 21075AD  24296.47245894  .00000061  00000+0  12210-3 0  9992
2 49102  87.9066  95.4124 0001424  94.8703 265.2591 13.18687298157771
ONEWEB-0317             
1 49103U 21075AE  24296.54812142  .00000306  00000+0  81577-3 0  9991
2 49103  87.8837 110.6851 0002063  83.0208 277.1155 13.12442085156149
ONEWEB-0318             
1 49104U 21075AF  24296.46929701 -.00000208  00000+0 -55916-3 0  9994
2 49104  87.9061  95.4031 0001361  94.1606 265.9682 13.18685541157733
ONEWEB-0319             
1 49105U 21075AG  24296.54395593  .00000071  00000+0  15060-3 0  9992
2 49105  87.9078 125.9388 0001073  87.3155 272.8099 13.17651303154249
ONEWEB-0323             
1 49106U 21075AH  24296.53837424  .00000070  00000+0  15788-3 0  9992
2 49106  87.8838 110.6739 0000792 108.5349 251.5866 13.12442237155507
ONEWEB-0329             
1 49107U 21075AJ  24296.55240244  .00000064  00000+0  13168-3 0  9996
2 49107  87.9079 125.9415 0001380  80.1348 279.9939 13.17651599154225
ONEWEB-0330             
1 49108U 21075AK  24296.55408120 -.00000844  00000+0 -22076-2 0  9991
2 49108  87.9077 125.9418 0001483  77.9429 282.1868 13.17655866154267
ONEWEB-0292             
1 49186U 21083A   24296.44714939 -.00000181  00000+0 -53076-3 0  9991
2 49186  87.8885  80.1631 0001458  98.5438 261.5856 13.13473289153090
ONEWEB-0303             
1 49187U 21083B   24296.46615298  .00000111  00000+0  24860-3 0  9992
2 49187  87.9059  95.4044 0001448  98.5191 261.6105 13.18687690150540
ONEWEB-0306             
1 49188U 21083C   24296.53254457  .00000059  00000+0  11583-3 0  9996
2 49188  87.9061  95.3776 0001695  84.2417 275.8908 13.18683299150596
ONEWEB-0307             
1 49189U 21083D   24296.44162184 -.00000181  00000+0 -52954-3 0  9997
2 49189  87.8888  80.1650 0001728  83.1764 276.9562 13.13471255151801
ONEWEB-0320             
1 49190U 21083E   24296.46297683  .00000147  00000+0  34068-3 0  9990
2 49190  87.9065  95.4174 0001568  84.5036 275.6274 13.18687829150547
ONEWEB-0321             
1 49191U 21083F   24296.32838192 -.00000125  00000+0 -33824-3 0  9999
2 49191  87.9295  34.3584 0001911  95.8039 264.3313 13.20771218157253
ONEWEB-0322             
1 49192U 21083G   24296.43763964 -.00000203  00000+0 -59129-3 0  9999
2 49192  87.8889  80.1553 0001985  85.1748 274.9608 13.13471190151792
ONEWEB-0324             
1 49193U 21083H   24296.52462692 -.00000219  00000+0 -58864-3 0  9996
2 49193  87.9062  95.3860 0001331  78.2652 281.8629 13.18684010150575
ONEWEB-0325             
1 49194U 21083J   24296.45349210  .00000103  00000+0  22763-3 0  9998
2 49194  87.9063  95.4148 0001676  98.2969 261.8353 13.18687980150573
ONEWEB-0326             
1 49195U 21083K   24296.46771563 -.00000003  00000+0 -40648-4 0  9994
2 49195  87.9058  95.4086 0001193 104.6897 255.4367 13.18687879150565
ONEWEB-0327             
1 49196U 21083L   24296.46692398  .00000142  00000+0  32707-3 0  9991
2 49196  87.9065  95.4341 0001367  96.6250 263.5038 13.18688316150588
